[{"OBJECT_NAME":"STARLINK-4592","OBJECT_ID":"2022-104AY","EPOCH":"2026-03-09T17:40:16.092768","MEAN_MOTION":15.08838954,"ECCENTRICITY":0.00013777,"INCLINATION":53.2173,"RA_OF_ASC_NODE":223.8196,"ARG_OF_PERICENTER":92.5072,"MEAN_ANOMALY":267.6078,"EPHEMERIS_TYPE":0,"CLASSIFICATION_TYPE":"U","NORAD_CAT_ID":53634,"ELEMENT_SET_NO":999,"REV_AT_EPOCH":19623,"BSTAR":3.4621393e-5,"MEAN_MOTION_DOT":2.63e-6,"MEAN_MOTION_DDOT":0},{"OBJECT_NAME":"FENGYUN 1C DEB","OBJECT_ID":"1999-025AEH","EPOCH":"2026-03-09T22:48:21.206880","MEAN_MOTION":14.8573293,"ECCENTRICITY":0.01077809,"INCLINATION":98.8499,"RA_OF_ASC_NODE":243.2798,"ARG_OF_PERICENTER":197.684,"MEAN_ANOMALY":322.9923,"EPHEMERIS_TYPE":0,"CLASSIFICATION_TYPE":"U","NORAD_CAT_ID":30418,"ELEMENT_SET_NO":999,"REV_AT_EPOCH":1886,"BSTAR":0.0011748472,"MEAN_MOTION_DOT":0.00011272,"MEAN_MOTION_DDOT":0}]
